{
  "type": "FeatureCollection",
  "features": [
    {
      "type": "Feature",
      "properties": {
        "norad_id": 35033,
        "name": "COSMOS 2251 DEB",
        "group": "cosmos-2251-debris",
        "lat": -65.10867177609789,
        "lon": 44.35325908848407,
        "alt_km": 722.0341630319481,
        "timestamp": "2025-12-07T14:37:05.599444+00:00",
        "meta_object_name": "COSMOS 2251 DEB",
        "meta_object_id": "1993-036AGW",
        "meta_epoch": "2025-12-06T07:40:42.682944",
        "meta_mean_motion": 14.50882288,
        "meta_eccentricity": 0.00143551,
        "meta_inclination": 74.0259,
        "meta_ra_of_asc_node": 188.6562,
        "meta_arg_of_pericenter": 295.5184,
        "meta_mean_anomaly": 64.4492,
        "meta_ephemeris_type": 0,
        "meta_classification_type": "U",
        "meta_norad_cat_id": 35033,
        "meta_element_set_no": 999,
        "meta_rev_at_epoch": 65834,
        "meta_bstar": 0.0011813512,
        "meta_mean_motion_dot": 4.642e-05,
        "meta_mean_motion_ddot": 0,
        "tle_line1": "1 35033U 93036AGW 25340.31993846  .00004642  00000+0  11814-2 0  9994",
        "tle_line2": "2 35033  74.0259 188.6562 0014355 295.5184  64.4492 14.50882288658342"
      },
      "geometry": {
        "type": "Point",
        "coordinates": [
          44.35325908848407,
          -65.10867177609789
        ]
      }
    },
    {
      "type": "Feature",
      "properties": {
        "norad_id": 35038,
        "name": "COSMOS 2251 DEB",
        "group": "cosmos-2251-debris",
        "lat": -27.5832734025846,
        "lon": 43.24065306957752,
        "alt_km": 779.3177950796262,
        "timestamp": "2025-12-07T14:37:05.599454+00:00",
        "meta_object_name": "COSMOS 2251 DEB",
        "meta_object_id": "1993-036AHB",
        "meta_epoch": "2025-12-06T15:52:14.325024",
        "meta_mean_motion": 14.25085934,
        "meta_eccentricity": 0.01136734,
        "meta_inclination": 74.1066,
        "meta_ra_of_asc_node": 53.5023,
        "meta_arg_of_pericenter": 39.0589,
        "meta_mean_anomaly": 112.7959,
        "meta_ephemeris_type": 0,
        "meta_classification_type": "U",
        "meta_norad_cat_id": 35038,
        "meta_element_set_no": 999,
        "meta_rev_at_epoch": 85482,
        "meta_bstar": 0.0014861854,
        "meta_mean_motion_dot": 3.705e-05,
        "meta_mean_motion_ddot": 0,
        "tle_line1": "1 35038U 93036AHB 25340.66127691  .00003705  00000+0  14862-2 0  9999",
        "tle_line2": "2 35038  74.1066  53.5023 0113673  39.0589 112.7959 14.25085934854820"
      },
      "geometry": {
        "type": "Point",
        "coordinates": [
          43.24065306957752,
          -27.5832734025846
        ]
      }
    },
    {
      "type": "Feature",
      "properties": {
        "norad_id": 35043,
        "name": "COSMOS 2251 DEB",
        "group": "cosmos-2251-debris",
        "lat": -55.51687145772159,
        "lon": 30.916827831360262,
        "alt_km": 590.1442016595392,
        "timestamp": "2025-12-07T14:37:05.599464+00:00",
        "meta_object_name": "COSMOS 2251 DEB",
        "meta_object_id": "1993-036AHG",
        "meta_epoch": "2025-12-04T12:04:43.932000",
        "meta_mean_motion": 14.76234637,
        "meta_eccentricity": 0.0098548,
        "meta_inclination": 73.9539,
        "meta_ra_of_asc_node": 61.8026,
        "meta_arg_of_pericenter": 272.4177,
        "meta_mean_anomaly": 86.5717,
        "meta_ephemeris_type": 0,
        "meta_classification_type": "U",
        "meta_norad_cat_id": 35043,
        "meta_element_set_no": 999,
        "meta_rev_at_epoch": 67297,
        "meta_bstar": 0.0098371,
        "meta_mean_motion_dot": 0.00074481,
        "meta_mean_motion_ddot": 0,
        "tle_line1": "1 35043U 93036AHG 25338.50328625  .00074481  00000+0  98371-2 0  9991",
        "tle_line2": "2 35043  73.9539  61.8026 0098548 272.4177  86.5717 14.76234637672978"
      },
      "geometry": {
        "type": "Point",
        "coordinates": [
          30.916827831360262,
          -55.51687145772159
        ]
      }
    },
    {
      "type": "Feature",
      "properties": {
        "norad_id": 35045,
        "name": "COSMOS 2251 DEB",
        "group": "cosmos-2251-debris",
        "lat": 72.67665910428097,
        "lon": 172.2272954410372,
        "alt_km": 1001.7326161713399,
        "timestamp": "2025-12-07T14:37:05.599474+00:00",
        "meta_object_name": "COSMOS 2251 DEB",
        "meta_object_id": "1993-036AHJ",
        "meta_epoch": "2025-12-06T12:26:28.649760",
        "meta_mean_motion": 14.00365965,
        "meta_eccentricity": 0.01833311,
        "meta_inclination": 73.7196,
        "meta_ra_of_asc_node": 63.6906,
        "meta_arg_of_pericenter": 306.5717,
        "meta_mean_anomaly": 51.8661,
        "meta_ephemeris_type": 0,
        "meta_classification_type": "U",
        "meta_norad_cat_id": 35045,
        "meta_element_set_no": 999,
        "meta_rev_at_epoch": 84556,
        "meta_bstar": 0.0011142657,
        "meta_mean_motion_dot": 1.881e-05,
        "meta_mean_motion_ddot": 0,
        "tle_line1": "1 35045U 93036AHJ 25340.51838715  .00001881  00000+0  11143-2 0  9999",
        "tle_line2": "2 35045  73.7196  63.6906 0183331 306.5717  51.8661 14.00365965845564"
      },
      "geometry": {
        "type": "Point",
        "coordinates": [
          172.2272954410372,
          72.67665910428097
        ]
      }
    },
    {
      "type": "Feature",
      "properties": {
        "norad_id": 35060,
        "name": "COSMOS 2251 DEB",
        "group": "cosmos-2251-debris",
        "lat": -36.98471690511403,
        "lon": -118.61259859215785,
        "alt_km": 747.1437721026205,
        "timestamp": "2025-12-07T14:37:05.599484+00:00",
        "meta_object_name": "COSMOS 2251 DEB",
        "meta_object_id": "1993-036AHP",
        "meta_epoch": "2025-11-28T02:37:07.839264",
        "meta_mean_motion": 14.41547968,
        "meta_eccentricity": 0.00179641,
        "meta_inclination": 74.0363,
        "meta_ra_of_asc_node": 271.4275,
        "meta_arg_of_pericenter": 359.5881,
        "meta_mean_anomaly": 0.5257,
        "meta_ephemeris_type": 0,
        "meta_classification_type": "U",
        "meta_norad_cat_id": 35060,
        "meta_element_set_no": 999,
        "meta_rev_at_epoch": 87031,
        "meta_bstar": 0.0004076845,
        "meta_mean_motion_dot": 1.301e-05,
        "meta_mean_motion_ddot": 0,
        "tle_line1": "1 35060U 93036AHP 25332.10911851  .00001301  00000+0  40768-3 0  9998",
        "tle_line2": "2 35060  74.0363 271.4275 0017964 359.5881   0.5257 14.41547968870310"
      },
      "geometry": {
        "type": "Point",
        "coordinates": [
          -118.61259859215785,
          -36.98471690511403
        ]
      }
    },
    {
      "type": "Feature",
      "properties": {
        "norad_id": 35061,
        "name": "COSMOS 2251 DEB",
        "group": "cosmos-2251-debris",
        "lat": 72.35797435398786,
        "lon": 19.72696703958955,
        "alt_km": 634.3519740730017,
        "timestamp": "2025-12-07T14:37:05.599494+00:00",
        "meta_object_name": "COSMOS 2251 DEB",
        "meta_object_id": "1993-036AHQ",
        "meta_epoch": "2025-12-06T21:53:18.224736",
        "meta_mean_motion": 14.67747851,
        "meta_eccentricity": 0.00389104,
        "meta_inclination": 74.0457,
        "meta_ra_of_asc_node": 316.9765,
        "meta_arg_of_pericenter": 69.579,
        "meta_mean_anomaly": 290.9551,
        "meta_ephemeris_type": 0,
        "meta_classification_type": "U",
        "meta_norad_cat_id": 35061,
        "meta_element_set_no": 999,
        "meta_rev_at_epoch": 88489,
        "meta_bstar": 0.0012424311,
        "meta_mean_motion_dot": 7.138e-05,
        "meta_mean_motion_ddot": 0,
        "tle_line1": "1 35061U 93036AHQ 25340.91201649  .00007138  00000+0  12424-2 0  9995",
        "tle_line2": "2 35061  74.0457 316.9765 0038910  69.5790 290.9551 14.67747851884896"
      },
      "geometry": {
        "type": "Point",
        "coordinates": [
          19.72696703958955,
          72.35797435398786
        ]
      }
    },
    {
      "type": "Feature",
      "properties": {
        "norad_id": 35062,
        "name": "COSMOS 2251 DEB",
        "group": "cosmos-2251-debris",
        "lat": -63.017836352117584,
        "lon": -43.455941275729636,
        "alt_km": 896.7768986492601,
        "timestamp": "2025-12-07T14:37:05.599504+00:00",
        "meta_object_name": "COSMOS 2251 DEB",
        "meta_object_id": "1993-036AHR",
        "meta_epoch": "2025-12-06T02:01:54.253344",
        "meta_mean_motion": 14.22846958,
        "meta_eccentricity": 0.01280925,
        "meta_inclination": 74.0788,
        "meta_ra_of_asc_node": 105.1759,
        "meta_arg_of_pericenter": 106.8523,
        "meta_mean_anomaly": 254.6716,
        "meta_ephemeris_type": 0,
        "meta_classification_type": "U",
        "meta_norad_cat_id": 35062,
        "meta_element_set_no": 999,
        "meta_rev_at_epoch": 85404,
        "meta_bstar": 0.0030644191,
        "meta_mean_motion_dot": 7.469e-05,
        "meta_mean_motion_ddot": 0,
        "tle_line1": "1 35062U 93036AHR 25340.08465571  .00007469  00000+0  30644-2 0  9991",
        "tle_line2": "2 35062  74.0788 105.1759 0128092 106.8523 254.6716 14.22846958854048"
      },
      "geometry": {
        "type": "Point",
        "coordinates": [
          -43.455941275729636,
          -63.017836352117584
        ]
      }
    }
  ]
}